[{"OBJECT_NAME":"STARLINK-34568","OBJECT_ID":"2025-142X","EPOCH":"2026-03-09T21:56:50.582976","MEAN_MOTION":14.98333705,"ECCENTRICITY":0.0002501,"INCLINATION":70.0007,"RA_OF_ASC_NODE":313.9237,"ARG_OF_PERICENTER":271.133,"MEAN_ANOMALY":88.9543,"EPHEMERIS_TYPE":0,"CLASSIFICATION_TYPE":"U","NORAD_CAT_ID":64717,"ELEMENT_SET_NO":999,"REV_AT_EPOCH":3952,"BSTAR":0.00031641368,"MEAN_MOTION_DOT":3.685e-5,"MEAN_MOTION_DDOT":0},{"OBJECT_NAME":"COSMOS 397 DEB","OBJECT_ID":"1971-015J","EPOCH":"2026-03-09T12:26:21.320448","MEAN_MOTION":13.66691871,"ECCENTRICITY":0.06349866,"INCLINATION":65.7052,"RA_OF_ASC_NODE":108.9757,"ARG_OF_PERICENTER":11.0561,"MEAN_ANOMALY":350.3721,"EPHEMERIS_TYPE":0,"CLASSIFICATION_TYPE":"U","NORAD_CAT_ID":5015,"ELEMENT_SET_NO":999,"REV_AT_EPOCH":65116,"BSTAR":0.00097635952,"MEAN_MOTION_DOT":3.3e-5,"MEAN_MOTION_DDOT":0}]
